{
  "type": "FeatureCollection",
  "features": [
    {
      "type": "Feature",
      "properties": {
        "norad_id": 34540,
        "name": "IRIDIUM 33 DEB",
        "group": "iridium-33-debris",
        "lat": -10.865701883861034,
        "lon": 129.2079819031605,
        "alt_km": 638.5384429119194,
        "timestamp": "2025-12-10T18:57:00.450430+00:00",
        "meta_object_name": "IRIDIUM 33 DEB",
        "meta_object_id": "1997-051JH",
        "meta_epoch": "2025-12-10T09:02:54.464064",
        "meta_mean_motion": 14.75237983,
        "meta_eccentricity": 0.0016009,
        "meta_inclination": 86.3107,
        "meta_ra_of_asc_node": 308.6869,
        "meta_arg_of_pericenter": 167.5274,
        "meta_mean_anomaly": 353.4924,
        "meta_ephemeris_type": 0,
        "meta_classification_type": "U",
        "meta_norad_cat_id": 34540,
        "meta_element_set_no": 999,
        "meta_rev_at_epoch": 88986,
        "meta_bstar": 0.0024708,
        "meta_mean_motion_dot": 0.00016789,
        "meta_mean_motion_ddot": 0,
        "tle_line1": "1 34540U 97051JH  25344.37701926  .00016789  00000+0  24708-2 0  9994",
        "tle_line2": "2 34540  86.3107 308.6869 0016009 167.5274 353.4924 14.75237983889869"
      },
      "geometry": {
        "type": "Point",
        "coordinates": [
          129.2079819031605,
          -10.865701883861034
        ]
      }
    },
    {
      "type": "Feature",
      "properties": {
        "norad_id": 34648,
        "name": "IRIDIUM 33 DEB",
        "group": "iridium-33-debris",
        "lat": 66.46520160479882,
        "lon": -68.93348640541849,
        "alt_km": 916.4078135236687,
        "timestamp": "2025-12-10T18:57:00.450440+00:00",
        "meta_object_name": "IRIDIUM 33 DEB",
        "meta_object_id": "1997-051JZ",
        "meta_epoch": "2025-12-10T06:43:30.393696",
        "meta_mean_motion": 14.11372346,
        "meta_eccentricity": 0.0183532,
        "meta_inclination": 86.3905,
        "meta_ra_of_asc_node": 282.939,
        "meta_arg_of_pericenter": 306.5499,
        "meta_mean_anomaly": 51.8907,
        "meta_ephemeris_type": 0,
        "meta_classification_type": "U",
        "meta_norad_cat_id": 34648,
        "meta_element_set_no": 999,
        "meta_rev_at_epoch": 84926,
        "meta_bstar": 0.012661,
        "meta_mean_motion_dot": 0.00026918,
        "meta_mean_motion_ddot": 0,
        "tle_line1": "1 34648U 97051JZ  25344.28021289  .00026918  00000+0  12661-1 0  9999",
        "tle_line2": "2 34648  86.3905 282.9390 0183532 306.5499  51.8907 14.11372346849260"
      },
      "geometry": {
        "type": "Point",
        "coordinates": [
          -68.93348640541849,
          66.46520160479882
        ]
      }
    },
    {
      "type": "Feature",
      "properties": {
        "norad_id": 34651,
        "name": "IRIDIUM 33 DEB",
        "group": "iridium-33-debris",
        "lat": 22.21554729341909,
        "lon": 142.9275003275209,
        "alt_km": 906.7861307229559,
        "timestamp": "2025-12-10T18:57:00.450450+00:00",
        "meta_object_name": "IRIDIUM 33 DEB",
        "meta_object_id": "1997-051KC",
        "meta_epoch": "2025-12-10T10:25:16.423104",
        "meta_mean_motion": 14.25753499,
        "meta_eccentricity": 0.0142039,
        "meta_inclination": 86.2848,
        "meta_ra_of_asc_node": 141.558,
        "meta_arg_of_pericenter": 211.2926,
        "meta_mean_anomaly": 147.9755,
        "meta_ephemeris_type": 0,
        "meta_classification_type": "U",
        "meta_norad_cat_id": 34651,
        "meta_element_set_no": 999,
        "meta_rev_at_epoch": 85863,
        "meta_bstar": 0.005394,
        "meta_mean_motion_dot": 0.00014272,
        "meta_mean_motion_ddot": 0,
        "tle_line1": "1 34651U 97051KC  25344.43421786  .00014272  00000+0  53940-2 0  9992",
        "tle_line2": "2 34651  86.2848 141.5580 0142039 211.2926 147.9755 14.25753499858630"
      },
      "geometry": {
        "type": "Point",
        "coordinates": [
          142.9275003275209,
          22.21554729341909
        ]
      }
    },
    {
      "type": "Feature",
      "properties": {
        "norad_id": 34652,
        "name": "IRIDIUM 33 DEB",
        "group": "iridium-33-debris",
        "lat": 0.9882622643656512,
        "lon": 160.8064137123657,
        "alt_km": 700.6442393383559,
        "timestamp": "2025-12-10T18:57:00.450461+00:00",
        "meta_object_name": "IRIDIUM 33 DEB",
        "meta_object_id": "1997-051KD",
        "meta_epoch": "2025-12-09T11:37:22.959264",
        "meta_mean_motion": 14.62008914,
        "meta_eccentricity": 0.00262076,
        "meta_inclination": 86.3314,
        "meta_ra_of_asc_node": 341.4507,
        "meta_arg_of_pericenter": 310.1115,
        "meta_mean_anomaly": 203.3524,
        "meta_ephemeris_type": 0,
        "meta_classification_type": "U",
        "meta_norad_cat_id": 34652,
        "meta_element_set_no": 999,
        "meta_rev_at_epoch": 88436,
        "meta_bstar": 0.0015009226,
        "meta_mean_motion_dot": 7.584e-05,
        "meta_mean_motion_ddot": 0,
        "tle_line1": "1 34652U 97051KD  25343.48429351  .00007584  00000+0  15009-2 0  9995",
        "tle_line2": "2 34652  86.3314 341.4507 0026207 310.1115 203.3524 14.62008914884363"
      },
      "geometry": {
        "type": "Point",
        "coordinates": [
          160.8064137123657,
          0.9882622643656512
        ]
      }
    },
    {
      "type": "Feature",
      "properties": {
        "norad_id": 34690,
        "name": "IRIDIUM 33 DEB",
        "group": "iridium-33-debris",
        "lat": 86.2775714485029,
        "lon": 141.0365994223081,
        "alt_km": 697.1484292367177,
        "timestamp": "2025-12-10T18:57:00.450471+00:00",
        "meta_object_name": "IRIDIUM 33 DEB",
        "meta_object_id": "1997-051KM",
        "meta_epoch": "2025-12-09T15:10:43.095936",
        "meta_mean_motion": 14.55078564,
        "meta_eccentricity": 0.001121,
        "meta_inclination": 86.378,
        "meta_ra_of_asc_node": 38.3417,
        "meta_arg_of_pericenter": 38.8624,
        "meta_mean_anomaly": 114.3139,
        "meta_ephemeris_type": 0,
        "meta_classification_type": "U",
        "meta_norad_cat_id": 34690,
        "meta_element_set_no": 999,
        "meta_rev_at_epoch": 88049,
        "meta_bstar": 0.00073259,
        "meta_mean_motion_dot": 3.182e-05,
        "meta_mean_motion_ddot": 0,
        "tle_line1": "1 34690U 97051KM  25343.63244324  .00003182  00000+0  73259-3 0  9991",
        "tle_line2": "2 34690  86.3780  38.3417 0011210  38.8624 114.3139 14.55078564880494"
      },
      "geometry": {
        "type": "Point",
        "coordinates": [
          141.0365994223081,
          86.2775714485029
        ]
      }
    },
    {
      "type": "Feature",
      "properties": {
        "norad_id": 34693,
        "name": "IRIDIUM 33 DEB",
        "group": "iridium-33-debris",
        "lat": -9.405948381690456,
        "lon": -55.81977635949815,
        "alt_km": 484.3291064818295,
        "timestamp": "2025-12-10T18:57:00.450481+00:00",
        "meta_object_name": "IRIDIUM 33 DEB",
        "meta_object_id": "1997-051KQ",
        "meta_epoch": "2025-12-10T08:38:30.910272",
        "meta_mean_motion": 15.27015384,
        "meta_eccentricity": 0.001442,
        "meta_inclination": 86.3054,
        "meta_ra_of_asc_node": 305.0066,
        "meta_arg_of_pericenter": 56.9182,
        "meta_mean_anomaly": 94.3145,
        "meta_ephemeris_type": 0,
        "meta_classification_type": "U",
        "meta_norad_cat_id": 34693,
        "meta_element_set_no": 999,
        "meta_rev_at_epoch": 88878,
        "meta_bstar": 0.0067186,
        "meta_mean_motion_dot": 0.00182624,
        "meta_mean_motion_ddot": 0,
        "tle_line1": "1 34693U 97051KQ  25344.36007998  .00182624  00000+0  67186-2 0  9999",
        "tle_line2": "2 34693  86.3054 305.0066 0014420  56.9182  94.3145 15.27015384888786"
      },
      "geometry": {
        "type": "Point",
        "coordinates": [
          -55.81977635949815,
          -9.405948381690456
        ]
      }
    },
    {
      "type": "Feature",
      "properties": {
        "norad_id": 34696,
        "name": "IRIDIUM 33 DEB",
        "group": "iridium-33-debris",
        "lat": 20.53046761918059,
        "lon": -153.0026834404061,
        "alt_km": 626.7776384505278,
        "timestamp": "2025-12-10T18:57:00.450490+00:00",
        "meta_object_name": "IRIDIUM 33 DEB",
        "meta_object_id": "1997-051KT",
        "meta_epoch": "2025-12-10T03:43:16.862592",
        "meta_mean_motion": 14.64869835,
        "meta_eccentricity": 0.00742093,
        "meta_inclination": 86.1846,
        "meta_ra_of_asc_node": 28.7244,
        "meta_arg_of_pericenter": 176.2548,
        "meta_mean_anomaly": 239.1587,
        "meta_ephemeris_type": 0,
        "meta_classification_type": "U",
        "meta_norad_cat_id": 34696,
        "meta_element_set_no": 999,
        "meta_rev_at_epoch": 86635,
        "meta_bstar": 0.0072837152,
        "meta_mean_motion_dot": 0.00040722,
        "meta_mean_motion_ddot": 0,
        "tle_line1": "1 34696U 97051KT  25344.15505628  .00040722  00000+0  72837-2 0  9993",
        "tle_line2": "2 34696  86.1846  28.7244 0074209 176.2548 239.1587 14.64869835866352"
      },
      "geometry": {
        "type": "Point",
        "coordinates": [
          -153.0026834404061,
          20.53046761918059
        ]
      }
    }
  ]
}